[{"OBJECT_NAME":"STARLINK-2756","OBJECT_ID":"2021-044AX","EPOCH":"2026-03-09T06:56:39.673248","MEAN_MOTION":15.30200644,"ECCENTRICITY":0.00014007,"INCLINATION":53.1602,"RA_OF_ASC_NODE":66.9949,"ARG_OF_PERICENTER":93.6092,"MEAN_ANOMALY":266.5069,"EPHEMERIS_TYPE":0,"CLASSIFICATION_TYPE":"U","NORAD_CAT_ID":48683,"ELEMENT_SET_NO":999,"REV_AT_EPOCH":26444,"BSTAR":0.00017492895,"MEAN_MOTION_DOT":4.825e-5,"MEAN_MOTION_DDOT":0},{"OBJECT_NAME":"CZ-2C DEB","OBJECT_ID":"2018-056F","EPOCH":"2026-03-09T10:57:26.102304","MEAN_MOTION":15.27739248,"ECCENTRICITY":0.00119172,"INCLINATION":98.1188,"RA_OF_ASC_NODE":250.032,"ARG_OF_PERICENTER":4.6998,"MEAN_ANOMALY":355.4349,"EPHEMERIS_TYPE":0,"CLASSIFICATION_TYPE":"U","NORAD_CAT_ID":43534,"ELEMENT_SET_NO":999,"REV_AT_EPOCH":41855,"BSTAR":0.00085537155,"MEAN_MOTION_DOT":0.00023193,"MEAN_MOTION_DDOT":0}]
